#cP2024  2 28  6  0  0.00000000     577 d+D   IGS20 EXT AIUB
## 2303 280800.00000000   300.00000000 60368 0.2500000000000
+   78   G01G02G03G04G05G06G07G08G09G10G11G12G13G14G15G16G17
+        G18G19G20G21G22G23G24G25G26G27G28G29G30G31G32R01R02
+        R03R04R05R07R08R09R11R12R13R14R15R16R17R18R19R21R22
+        R24R26E02E03E04E05E07E08E09E10E11E12E13E14E15E18E19
+        E21E24E25E26E27E30E31E33E34E36  0  0  0  0  0  0  0
++         6  7  5  6  7  6  7  6  6  5  7  7  7  5  7  7  7
++         7  7  7  7  7  6  7  6  6  6  6  7  6  7  6  8  7
++         7  7  8  7  7  6  7  6  8  7  7  7  8  7  9  7  7
++         8  7  7  7  8  7  7  6  7  7  6  7  7  7  7  7  6
++         6  6  7  6  6  6  7  6  8  7  0  0  0  0  0  0  0
%c M  cc GPS ccc cccc cccc cccc cccc ccccc ccccc ccccc ccccc
%c cc cc ccc ccc cccc cccc cccc cccc ccccc ccccc ccccc ccccc
%f  1.2500000  1.025000000  0.00000000000  0.000000000000000
%f  0.0000000  0.000000000  0.00000000000  0.000000000000000
%i    0    0    0    0      0      0      0      0         0
%i    0    0    0    0      0      0      0      0         0
/* Center for Orbit Determination in Europe (CODE)          
/* Ultra-rapid GRE orbits starting year-day 24059 06 hour   
/* Observed/predicted: 25/23 hours (data used up to 060G)   
/* PCV:IGS20      OL/AL:FES2014b NONE     YN ORB:CoN CLK:BRD
*  2024  2 29 23  5  0.00000000
PG01  22606.872584  11086.565399   8634.566125    171.718704               P   P
PG02  22562.957574  14280.919046    524.435831   -477.614528               P   P
PG03  12397.963786  10893.660118  20696.721041    224.377573               P   P
PG04  20622.245084   4437.844101  16235.712676    303.899311               P   P
PG05  -7114.482815 -21968.078473 -13211.817913   -163.681033               P   P
PG06   4766.213938 -14497.773705  21789.398782    387.083186               P   P
PG07  20536.813794   1000.512077 -16572.751994    -73.698830               P   P
PG08  13857.348768   9824.374017 -20613.984853     20.884937               P   P
PG09  25123.791121  -6966.466431   5150.188487    108.963476               P   P
PG10 -10638.003604  21180.106951 -11442.423489      1.034568               P   P
PG11  -6781.636360 -20244.656593  15853.107824   -592.245598               P   P
PG12 -11703.233770 -12379.831025  20107.307117   -482.819726               P   P
PG13  -3826.265058 -14588.688953 -22065.476588    630.067523               P   P
PG14  13338.429887 -17915.035681 -14203.355245    338.750586               P   P
PG15 -14810.324437  -8971.004710 -20677.140083    132.881566               P   P
PG16    861.643613  24799.967040  -9137.534197   -351.585870               P   P
PG17  21720.258260 -13280.374482   8264.660557    715.312509               P   P
PG18 -19488.074450     56.040402 -18116.152244   -566.228284               P   P
PG19  14798.376262 -15299.393607  15464.601317    447.611358               P   P
PG20  -1209.967348 -26619.085241   -298.414350    385.639220               P   P
PG21  20543.052834  16942.776616  -4516.751202    133.099809               P   P
PG22  10309.037064 -23572.391964  -6754.884020     23.183593               P   P
PG23 -14515.266988   9983.288386 -19792.750816    166.951561               P   P
PG24 -21399.952454 -15951.406773  -2671.419985   -439.583836               P   P
PG25 -15311.757530   -376.248560  21347.700519    490.052891               P   P
PG26  -3873.151497  25870.301189   3104.381041    184.790465               P   P
PG27    707.138042  15874.911053 -21497.674931     -8.225411               P   P
PG28  -7295.793771  13415.175335  21711.427498   -148.157147               P   P
PG29 -25517.999878   3362.512460   6716.317045   -605.892365               P   P
PG30  13152.293471  -9351.215982 -20995.422106   -425.973182               P   P
PG31   1899.483721  18512.701909  18584.341721   -227.906861               P   P
PG32 -18647.977427  15710.579251  10477.050711   -614.039533               P   P
PR01 -13254.279013  19814.608593   9101.546286     78.480363               P   P
PR02     53.314169  13794.142623  21490.825291    -22.553034               P   P
PR03  13995.763600    419.398716  21387.798833     95.452182               P   P
PR04  19881.398598 -12741.063347   9699.746961    225.582174               P   P
PR05  15282.524611 -19106.616700  -7240.764420    127.629681               P   P
PR07 -14452.285330    292.162222 -20957.038365     76.954012               P   P
PR08 -19780.245283  13063.917768  -9311.146869    -74.546910               P   P
PR09  -8073.953623 -24044.281438   2292.324208    172.810536               P   P
PR11 -10512.692945   3052.405558  23045.232884     32.727482               P   P
PR12  -1951.922955  20709.137705  14771.616006     37.282109               P   P
PR13   6619.099518  24631.503182    136.603401    -44.837720               P   P
PR14  12476.756345  13743.433538 -17500.084939     26.132118               P   P
PR15  10197.359975  -4615.245977 -22908.634792     81.778648               P   P
PR16   1894.858159 -20513.962172 -15017.193369     23.655671               P   P
PR17  23815.485379   8474.719876  -3280.324471     65.250613               P   P
PR18  22037.639330    594.221135  12898.393554    129.846910               P   P
PR19  10821.517366  -6747.907075  22092.610598   -267.696823               P   P
PR21 -23829.428147  -8588.469350   3092.572496    -80.921864               P   P
PR22 -21515.417075   -373.456047 -13656.148703    110.552456               P   P
PR24  12062.760000  12628.995891 -18571.255558    -45.921090               P   P
PR26 -19686.226961  12544.390944 -10285.468558   -195.784685               P   P
PE02  16934.720129 -11099.529407 -21610.567283    107.474181               P   P
PE03  27756.341005 -10250.091803    613.611859    -97.153333               P   P
PE04 -15560.930077  18668.463429  16907.903913   -338.969751               P   P
PE05  23545.909157   4017.040368  17488.171040   4724.786598               P   P
PE07  -5104.998850 -16189.779578 -24239.968575   -106.428584               P   P
PE08  16264.173039 -18457.998495 -16450.418173   -231.726730               P   P
PE09   4910.642553  16115.741711  24342.962065   -354.017621               P   P
PE10   4988.262731  20843.064042 -20421.401283   -605.783090               P   P
PE11  14644.450432  22403.585584 -12671.164682   3212.265508               P   P
PE12  -4453.918032  16492.506886 -24176.846787   -928.136835               P   P
PE13 -14118.690536 -22366.168617  13279.287066    -20.354959               P   P
PE14 -25362.825529  17554.091321  -9910.431809 999999.999999               P   P
PE15   4976.113122 -16073.990192  24358.514166    -88.602082               P   P
PE18  18205.970215 -12745.934904   7678.130638 999999.999999               P   P
PE19 -28157.781740   8706.363969  -2717.000312   -519.490560               P   P
PE21 -14685.969975 -10554.682815  23424.774483   -581.582231               P   P
PE24   3508.193007  27117.317608 -11327.573952   -625.852433               P   P
PE25  14550.492624  10971.246927 -23327.258274      1.533511               P   P
PE26 -24774.790713 -15052.776362  -5956.387236    383.233160               P   P
PE27  -3787.285217 -26962.937248  11621.541466   -287.231755               P   P
PE30   9446.809450 -27155.854368  -7091.377283    -48.135079               P   P
PE31  -9207.217262  27271.930328   6884.332515    -17.123083               P   P
PE33 -21156.440715    -26.780907 -20695.453151      8.355306               P   P
PE34  20858.861401   -504.249008  20995.174568    -97.375322               P   P
PE36  24656.489731  15486.518594   5384.509506   -192.875110               P   P
EOF
